#cP2016  2  6  0  0  0.00000000     288   u+U UNDEF FIT  GFZ                    
## 1882 518400.00000000   300.00000000 57424 0.0000000000000                    
+   75   C01C02C03C04C05C06C07C08C09C10C11C12C14E11E12E14E19                    
+        E22E24E26E30G01G02G03G05G06G07G08G09G11G12G13G14G15                    
+        G16G17G18G19G20G21G22G23G24G25G26G27G28G29G30G31J01                    
+        R01R02R03R04R05R06R07R08R09R10R11R12R13R14R15R16R18                    
+        R19R20R21R22R23R24R26 00 00 00 00 00 00 00 00 00 00                    
++        10 10 10 10  0  9  8 10  7 10  6  9  8  8  8  0 10                    
++         6  7  6  5  5  5  5  5  5  8  6  7  7  7  7  6  7                    
++         6  6  7  7  5  7  8  6  8  7  7  5  6  5  6  7 10                    
++         7  7  6  5 10  8  7  9 10 10  9  9  7  9  9  9  5                    
++         6  9  8  8  8  6  0  0  0  0  0  0  0  0  0  0  0                    
%c M  cc GPS ccc cccc cccc cccc cccc ccccc ccccc ccccc ccccc                    
%c cc cc ccc ccc cccc cccc cccc cccc ccccc ccccc ccccc ccccc                    
%f  1.2500000  1.025000000  0.00000000000  0.000000000000000                    
%f  0.0000000  0.000000000  0.00000000000  0.000000000000000                    
%i    0    0    0    0      0      0      0      0         0                    
%i    0    0    0    0      0      0      0      0         0                    
/* PCV:IGS08_1882 OL/AL:FES2004  NONE     YN CLK:CoN ORB:CoN                    
/*     GeoForschungsZentrum Potsdam                                             
/*                                                                              
/*                                                                              
*  2016  2  6  2  0  0.00000000                                                 
PC01 -32335.459006  27035.237853  -1048.916769   -304.302899                    
PC02   7306.793055  41516.430823     89.766337    -35.769929                    
PC03 -14725.023109  39487.502251   -992.286519   -358.430592                    
PC04 -39659.433871  14303.430538   -668.535031      7.204496                    
PC05  21843.938594  36058.951278     -4.116925    110.130690                    
PC06 -11795.515634  21766.589613  34248.816262   -151.309030                    
PC07 -25527.169808  28646.651856 -17693.084841    238.563277                    
PC08 -11356.964140  37614.036826 -14956.367452   -109.775687                    
PC09   5015.185790  29520.495003  29839.650878    700.255703                    
PC10 -10593.515682  29496.482767 -28245.876032    267.878401                    
PC11 -11262.528950  17303.583704 -18683.843663    306.097184                    
PC12 -15789.994925  -4108.335456 -22615.297450    396.754674                    
PC14 -17070.556318   8127.332393  20532.393487    365.375992                    
PE11  -5593.654513  29066.836630   -588.701079     43.795628                    
PE12 -14996.368853  19475.010273 -16486.822934   -653.860249                    
PE14    742.970829  30854.081262  -6427.598556   3922.741293                    
PE19 -25119.549096 -11308.581603  10808.030095    -13.355805                    
PE22  16964.874886    721.510317  24244.356199    756.996466                    
PE24 -10043.365084  18078.349724 -21169.893513   2572.789992                    
PE26  -8571.000611 -21959.436411 -17904.603048   3891.628740                    
PE30  25865.229634 -13254.919707   5658.296930   2542.127563                    
PG01  11741.135365 -21528.184902  -9999.241996     10.996474                    
PG02 -20995.158192  11795.752438 -10303.251600    599.528676                    
PG03   4918.449759 -14464.487173 -21729.244495    -21.005527                    
PG05 -22835.961030   3984.882043  13069.638784   -148.679423                    
PG06 -17804.175034  -1361.681124 -19651.104272    140.946151                    
PG07  -2801.085612 -16804.866158  20401.683359    470.830532                    
PG08   8154.962315 -17689.344025  18106.677048    -22.793295                    
PG09  -8095.027795 -25253.074476   1366.598311     64.906883                    
PG11   9888.850052 -24608.816552  -1165.074600   -630.910615                    
PG12  -9257.977469  12098.524577 -21842.415776    366.099774                    
PG13 -13050.377051   9408.258391  21013.207153   -183.393835                    
PG14  14076.195925  16210.097827 -15485.016869      4.784027                    
PG15  -5154.207666  20741.389909  15428.844227   -295.814987                    
PG16  23199.224428  -1264.649245  13137.199841    -42.170802                    
PG17 -13983.318695 -17108.015599 -14555.978357   -200.205603                    
PG18  14372.358507  15947.256880  16325.883900    480.577365                    
PG19 -15047.506061 -11150.146957 -18911.111318   -524.754289                    
PG20  -8360.364422  14270.119503  20632.561653    390.840547                    
PG21   7501.713972  14942.712658  21330.071144   -509.013026                    
PG22  25555.961635    208.843730  -7353.806304    401.414648                    
PG23    365.350174 -24513.069254  -9477.064338   -158.624610                    
PG24 -13598.171609  21607.964357  -7000.175810    -11.903866                    
PG25   5467.865340  15860.590339 -20740.479895   -112.031987                    
PG26  26029.516345   4166.795572   3425.001819   -242.473077                    
PG27  13509.017584  -7015.614298  21731.820146     60.137727                    
PG28 -21938.402724 -13079.820197   8007.289006    500.430302                    
PG29   4676.326140  26130.101347  -1393.532687    653.613671                    
PG30 -12296.373398  -9527.258034  21528.362334     93.107413                    
PG31  19014.193797   -578.608426 -18573.844046    283.904316                    
PJ01 -29732.029493  24826.132563  21760.511234     -3.822016                    
PR01   3732.961545 -10854.301921 -22785.824843   -146.151980                    
PR02 -13150.965092 -17166.213704 -13470.661382    175.040562                    
PR03 -21536.355427 -13114.284934   3783.901369     61.693960                    
PR04 -17107.147322  -1085.637524  18893.093762    156.134953                    
PR05  -3047.247440  11265.618908  22665.927166     -0.379440                    
PR06  13868.941919  17215.025000  12734.249216     83.241706                    
PR07  21561.897033  13067.089292  -3932.643570     -5.996898                    
PR08  17391.567387   1522.311056 -18548.881175    -27.070045                    
PR09   2651.888115  10635.190799 -23047.945952     26.034695                    
PR10  17961.294358    949.638035 -18072.461285     13.369777                    
PR11  23575.509042  -9569.959076  -2395.559079     23.243789                    
PR12  14873.380726 -14348.875491  14818.838437     34.860518                    
PR13  -2821.278630 -10384.668969  23110.996798     10.795932                    
PR14 -18928.413830    -32.289639  17116.526180    277.975581                    
PR15 -23632.863610   8710.694857   3663.810410     63.022453                    
PR16 -14151.570577  14461.880652 -15613.959533     30.453624                    
PR18 -10920.718928   8314.089175 -21497.572841     87.780583                    
PR19  -6589.552174  23229.324662  -8216.994076   -147.565745                    
PR20   1719.804732  23505.345923   9835.114203   -218.025465                    
PR21   8893.643551  10725.443048  21366.415361     49.831890                    
PR22  10849.778761  -8620.976938  21390.665129    190.680974                    
PR23   6119.233088 -23471.534926   7893.136766    -78.004150                    
PR24  -1571.445729 -23908.232965  -8757.710167   -133.482764                    
PR26   2684.065737  22920.101343  10860.721028     83.566096                    
EOF                                     
